{"type": "FeatureCollection", "features": [ {"type": "Feature", "properties": {"norad_id": 66909, "name": "1998-067XV", "group": "stations", "lat": -35.716527208500665, "lon": 24.793166005974534, "alt_km": 415.8111361514293, "timestamp": "2025-12-07T03:52:31.222669+00:00", "meta": {"OBJECT_NAME": "1998-067XV", "OBJECT_ID": "1998-067XV", "EPOCH": "2025-12-06T14:31:18.459264", "MEAN_MOTION": 15.50547779, "ECCENTRICITY": 0.00052426, "INCLINATION": 51.6296, "RA_OF_ASC_NODE": 172.8258, "ARG_OF_PERICENTER": 193.8867, "MEAN_ANOMALY": 166.1979, "EPHEMERIS_TYPE": 0, "CLASSIFICATION_TYPE": "U", "NORAD_CAT_ID": 66909, "ELEMENT_SET_NO": 999, "REV_AT_EPOCH": 66, "BSTAR": 0.0015899979, "MEAN_MOTION_DOT": 0.00093198, "MEAN_MOTION_DDOT": 0}, "tle": {"line1": "1 66909U 98067XV  25340.60507476  .00093198  00000+0  15900-2 0  9995", "line2": "2 66909  51.6296 172.8258 0005242 193.8867 166.1979 15.50547779   660"}}, "geometry": {"type": "Point", "coordinates": [24.793166005974534, -35.716527208500665]}}, {"type": "Feature", "properties": {"norad_id": 66910, "name": "1998-067XW", "group": "stations", "lat": -38.660092021305, "lon": 29.39086447012255, "alt_km": 415.6819216078429, "timestamp": "2025-12-07T03:52:31.222679+00:00", "meta": {"OBJECT_NAME": "1998-067XW", "OBJECT_ID": "1998-067XW", "EPOCH": "2025-12-06T14:30:13.476960", "MEAN_MOTION": 15.50789302, "ECCENTRICITY": 0.00061597, "INCLINATION": 51.6294, "RA_OF_ASC_NODE": 172.8206, "ARG_OF_PERICENTER": 179.5377, "MEAN_ANOMALY": 180.5619, "EPHEMERIS_TYPE": 0, "CLASSIFICATION_TYPE": "U", "NORAD_CAT_ID": 66910, "ELEMENT_SET_NO": 999, "REV_AT_EPOCH": 66, "BSTAR": 0.0013604594, "MEAN_MOTION_DOT": 0.0008025, "MEAN_MOTION_DDOT": 0}, "tle": {"line1": "1 66910U 98067XW  25340.60432265  .00080250  00000+0  13605-2 0  9995", "line2": "2 66910  51.6294 172.8206 0006159 179.5377 180.5619 15.50789302   669"}}, "geometry": {"type": "Point", "coordinates": [29.39086447012255, -38.660092021305]}}, {"type": "Feature", "properties": {"norad_id": 66911, "name": "1998-067XX", "group": "stations", "lat": -39.05211806182598, "lon": 30.055484675062043, "alt_km": 415.47758737387176, "timestamp": "2025-12-07T03:52:31.222689+00:00", "meta": {"OBJECT_NAME": "1998-067XX", "OBJECT_ID": "1998-067XX", "EPOCH": "2025-12-06T14:30:06.081984", "MEAN_MOTION": 15.50869311, "ECCENTRICITY": 0.00060509, "INCLINATION": 51.6293, "RA_OF_ASC_NODE": 172.8204, "ARG_OF_PERICENTER": 180.1037, "MEAN_ANOMALY": 179.9952, "EPHEMERIS_TYPE": 0, "CLASSIFICATION_TYPE": "U", "NORAD_CAT_ID": 66911, "ELEMENT_SET_NO": 999, "REV_AT_EPOCH": 65, "BSTAR": 0.0015610395, "MEAN_MOTION_DOT": 0.00092556, "MEAN_MOTION_DDOT": 0}, "tle": {"line1": "1 66911U 98067XX  25340.60423706  .00092556  00000+0  15610-2 0  9996", "line2": "2 66911  51.6293 172.8204 0006050 180.1037 179.9952 15.50869311   658"}}, "geometry": {"type": "Point", "coordinates": [30.055484675062043, -39.05211806182598]}}, {"type": "Feature", "properties": {"norad_id": 66912, "name": "1998-067XY", "group": "stations", "lat": -34.343140962809095, "lon": 22.845126976059742, "alt_km": 416.39024251392857, "timestamp": "2025-12-07T03:52:31.222698+00:00", "meta": {"OBJECT_NAME": "1998-067XY", "OBJECT_ID": "1998-067XY", "EPOCH": "2025-12-06T14:31:44.195232", "MEAN_MOTION": 15.50339462, "ECCENTRICITY": 0.00052344, "INCLINATION": 51.6295, "RA_OF_ASC_NODE": 172.8274, "ARG_OF_PERICENTER": 193.0919, "MEAN_ANOMALY": 166.9935, "EPHEMERIS_TYPE": 0, "CLASSIFICATION_TYPE": "U", "NORAD_CAT_ID": 66912, "ELEMENT_SET_NO": 999, "REV_AT_EPOCH": 65, "BSTAR": 0.0011669061, "MEAN_MOTION_DOT": 0.00067549, "MEAN_MOTION_DDOT": 0}, "tle": {"line1": "1 66912U 98067XY  25340.60537263  .00067549  00000+0  11669-2 0  9995", "line2": "2 66912  51.6295 172.8274 0005234 193.0919 166.9935 15.50339462   659"}}, "geometry": {"type": "Point", "coordinates": [22.845126976059742, -34.343140962809095]}}]}